[{"OBJECT_NAME":"EXO-0","OBJECT_ID":"2023-174DK","EPOCH":"2026-03-09T17:03:04.419648","MEAN_MOTION":15.32821991,"ECCENTRICITY":0.00098779,"INCLINATION":97.3864,"RA_OF_ASC_NODE":148.9039,"ARG_OF_PERICENTER":157.1125,"MEAN_ANOMALY":203.0559,"EPHEMERIS_TYPE":0,"CLASSIFICATION_TYPE":"U","NORAD_CAT_ID":59175,"ELEMENT_SET_NO":999,"REV_AT_EPOCH":12979,"BSTAR":0.00036716083,"MEAN_MOTION_DOT":0.00011582,"MEAN_MOTION_DDOT":0},{"OBJECT_NAME":"STARLINK-32728","OBJECT_ID":"2025-029A","EPOCH":"2026-03-09T17:01:06.881952","MEAN_MOTION":15.30198454,"ECCENTRICITY":7.776e-5,"INCLINATION":53.1601,"RA_OF_ASC_NODE":230.0213,"ARG_OF_PERICENTER":36.0125,"MEAN_ANOMALY":324.0928,"EPHEMERIS_TYPE":0,"CLASSIFICATION_TYPE":"U","NORAD_CAT_ID":62948,"ELEMENT_SET_NO":999,"REV_AT_EPOCH":6139,"BSTAR":0.00075755201,"MEAN_MOTION_DOT":0.00022143,"MEAN_MOTION_DDOT":0}]
